[{"OBJECT_NAME":"SCS-01 D","OBJECT_ID":"2025-100D","EPOCH":"2026-03-09T18:08:45.040704","MEAN_MOTION":15.31902149,"ECCENTRICITY":0.00063457,"INCLINATION":97.373,"RA_OF_ASC_NODE":145.4097,"ARG_OF_PERICENTER":266.2302,"MEAN_ANOMALY":93.8214,"EPHEMERIS_TYPE":0,"CLASSIFICATION_TYPE":"U","NORAD_CAT_ID":63985,"ELEMENT_SET_NO":999,"REV_AT_EPOCH":4562,"BSTAR":0.0010528181,"MEAN_MOTION_DOT":0.00032471,"MEAN_MOTION_DDOT":0},{"OBJECT_NAME":"STARLINK-35677","OBJECT_ID":"2025-244Q","EPOCH":"2026-03-09T22:55:59.653056","MEAN_MOTION":15.30198726,"ECCENTRICITY":0.00016907,"INCLINATION":53.1596,"RA_OF_ASC_NODE":228.4321,"ARG_OF_PERICENTER":54.0385,"MEAN_ANOMALY":306.0772,"EPHEMERIS_TYPE":0,"CLASSIFICATION_TYPE":"U","NORAD_CAT_ID":66220,"ELEMENT_SET_NO":999,"REV_AT_EPOCH":2170,"BSTAR":0.0011877651,"MEAN_MOTION_DOT":0.00034984,"MEAN_MOTION_DDOT":0}]
